SL-16 R/B               
1 25400U 98043G   25365.88313582  .00000144  00000+0  79363-4 0  9994
2 25400  98.8150 313.8108 0009315 205.8577 154.2138 14.26030852429325
SL-16 R/B               
1 25407U 98045B   26001.18899978  .00000030  00000+0  39102-4 0  9993
2 25407  71.0127 323.5247 0005698 143.9427 216.2082 14.16181603417545
ISS (ZARYA)             
1 25544U 98067A   25365.75865998  .00015131  00000+0  28223-3 0  9998
2 25544  51.6330  48.2919 0007527 325.0385  35.0108 15.48982944545803
CZ-4B R/B               
1 25732U 99025C   26001.15168985  .00000138  00000+0  87528-4 0  9991
2 25732  98.6740  46.9948 0037183 177.6925 250.7311 14.18248896378596
OKEAN-O                 
1 25860U 99039A   26001.12332148  .00001344  00000+0  18373-3 0  9990
2 25860  97.9576  61.6550 0001311 114.5388 245.5961 14.80199904424394
SL-16 R/B               
1 25861U 99039B   26001.16735685  .00001111  00000+0  14790-3 0  9999
2 25861  98.0098  60.3172 0016043 114.6091 245.6794 14.81619164426867
DELTA 2 R/B             
1 25876U 99041E   26001.04402326  .00002995  00000+0  51963-3 0  9992
2 25876  51.7595 211.3823 0504232 148.6636 214.5411 14.11469453353470
HELIOS 1B               
1 25977U 99064A   26001.17892256  .00003473  00000+0  39072-3 0  9997
2 25977  98.1755 261.4213 0000504  38.0534 322.0717 14.87373626675229
TERRA                   
1 25994U 99068A   26001.18669377  .00000856  00000+0  18386-3 0  9994
2 25994  97.9721  57.1548 0003164  55.0246  11.6100 14.60927149385224
SL-16 R/B               
1 26070U 00006B   26001.11621487  .00000317  00000+0  18526-3 0  9995
2 26070  71.0014 239.9174 0018744 282.5495  77.3532 14.15813290338997
TITAN 4B R/B            
1 26474U 00047B   26001.09949403  .00005676  00000+0  36106-3 0  9993
2 26474  67.9887 230.4783 0037643 121.0274 239.4580 15.08939223382711
ENVISAT                 
1 27386U 02009A   25365.95019499  .00000264  00000+0  99422-4 0  9995
2 27386  98.3626 316.2065 0001107  88.1807 295.1197 14.39007536249430
